[{"OBJECT_NAME":"FIRESAT 0 (MUSAT-4)","OBJECT_ID":"2025-052AY","EPOCH":"2026-03-09T15:57:50.109120","MEAN_MOTION":14.92687293,"ECCENTRICITY":0.00010431,"INCLINATION":97.7074,"RA_OF_ASC_NODE":321.9696,"ARG_OF_PERICENTER":99.4914,"MEAN_ANOMALY":260.6424,"EPHEMERIS_TYPE":0,"CLASSIFICATION_TYPE":"U","NORAD_CAT_ID":63256,"ELEMENT_SET_NO":999,"REV_AT_EPOCH":5374,"BSTAR":0.00017292195,"MEAN_MOTION_DOT":1.728e-5,"MEAN_MOTION_DDOT":0},{"OBJECT_NAME":"HUBBLE 7","OBJECT_ID":"2025-135BS","EPOCH":"2026-03-09T22:34:38.564832","MEAN_MOTION":14.93574527,"ECCENTRICITY":0.00025753,"INCLINATION":97.7624,"RA_OF_ASC_NODE":184.774,"ARG_OF_PERICENTER":333.1877,"MEAN_ANOMALY":26.921,"EPHEMERIS_TYPE":0,"CLASSIFICATION_TYPE":"U","NORAD_CAT_ID":64592,"ELEMENT_SET_NO":999,"REV_AT_EPOCH":3909,"BSTAR":0.00045783206,"MEAN_MOTION_DOT":4.773e-5,"MEAN_MOTION_DDOT":0}]
